SL-14 R/B               
1 16496U 86006B   26114.75428109  .00000559  00000+0  56212-4 0  9994
2 16496  82.5293 216.3851 0077803 119.5131 241.3875 14.86889168156055
COSMOS 1743             
1 16719U 86034A   26114.80966948  .00040087  00000+0  44827-3 0  9995
2 16719  82.5323  25.2818 0007551 105.8074 254.4016 15.62522266187441
SL-14 R/B               
1 16792U 86046B   26114.81011392  .00000348  00000+0  37093-4 0  9998
2 16792  82.4844  36.6044 0024664  76.4513 283.9448 14.85633018133259
SL-14 R/B               
1 16882U 86055B   26114.87162742  .00000396  00000+0  42692-4 0  9994
2 16882  82.5185  83.2505 0018952 174.5640 247.8263 14.85681662126223
AJISAI (EGS)            
1 16908U 86061A   26114.81679016 -.00000081  00000+0  11954-3 0  9999
2 16908  50.0101 311.5097 0011425  45.3149  46.9503 12.44515943473748
SL-14 R/B               
1 17567U 87024B   26114.82675328  .00000395  00000+0  42073-4 0  9998
2 17567  82.5296  49.3955 0019778 106.4709 253.8683 14.86174147 94982
COSMOS 1833             
1 17589U 87027A   26114.66148740 -.00000221  00000+0 -92665-4 0  9992
2 17589  70.9164 229.3840 0022419 143.4149 216.8509 14.13034249 16819
SL-16 R/B               
1 17590U 87027B   26114.50154675  .00000231  00000+0  13830-3 0  9996
2 17590  71.0028 179.9579 0003557  29.0602 331.0719 14.17170358 21833
SL-14 R/B               
1 17912U 87038B   26114.84533926  .00000364  00000+0  39306-4 0  9997
2 17912  82.5003 253.3133 0019566  16.5244 343.6605 14.85409131 86084
COSMOS 1844             
1 17973U 87041A   26114.85947834 -.00000310  00000+0 -13566-3 0  9998
2 17973  70.8982 296.7921 0032790 310.2783  49.5473 14.14560969 10114
SL-14 R/B               
1 18153U 87055B   26114.81413588  .00000352  00000+0  37675-4 0  9996
2 18153  82.4968 305.5531 0019658 217.7926 142.1911 14.85667976 76788
COSMOS 1867             
1 18187U 87060A   26114.61964057 -.00000068  00000+0  11966-4 0  9999
2 18187  65.0102 178.0768 0015385 280.9432  78.9921 14.31509544 26514
SL-14 R/B               
1 18749U 88001B   26114.54322293  .00000258  00000+0  26858-4 0  9997
2 18749  82.5126 152.2428 0019652  87.2814 273.0652 14.85569280 48838
COSMOS 1933             
1 18958U 88020A   26114.66301243  .00003301  00000+0  15914-3 0  9997
2 18958  82.5152 205.4192 0005041  56.1941 303.9772 15.18380633 57208
SL-3 R/B                
1 19046U 88032B   26114.87553109  .00004207  00000+0  19453-3 0  9990
2 19046  97.5237  97.9983 0027573  74.2561 286.1712 15.20376237 59129
SL-16 R/B               
1 19120U 88039B   26114.85139245  .00000145  00000+0  91242-4 0  9993
2 19120  71.0153 330.9406 0024087 269.1605  90.6760 14.19623263964933
COSMOS 1953             
1 19210U 88050A   26114.44014939  .00005893  00000+0  20668-3 0  9991
2 19210  82.5051 112.1977 0009611 332.0369  28.0353 15.29191955 44777
