[{"OBJECT_NAME":"SL-14 R/B","OBJECT_ID":"1986-006B","EPOCH":"2026-04-24T18:06:09.886176","MEAN_MOTION":14.86889168,"ECCENTRICITY":0.0077803,"INCLINATION":82.5293,"RA_OF_ASC_NODE":216.3851,"ARG_OF_PERICENTER":119.5131,"MEAN_ANOMALY":241.3875,"EPHEMERIS_TYPE":0,"CLASSIFICATION_TYPE":"U","NORAD_CAT_ID":16496,"ELEMENT_SET_NO":999,"REV_AT_EPOCH":15605,"BSTAR":5.6212e-5,"MEAN_MOTION_DOT":5.59e-6,"MEAN_MOTION_DDOT":0},{"OBJECT_NAME":"COSMOS 1743","OBJECT_ID":"1986-034A","EPOCH":"2026-04-24T19:25:55.443072","MEAN_MOTION":15.62522266,"ECCENTRICITY":0.0007551,"INCLINATION":82.5323,"RA_OF_ASC_NODE":25.2818,"ARG_OF_PERICENTER":105.8074,"MEAN_ANOMALY":254.4016,"EPHEMERIS_TYPE":0,"CLASSIFICATION_TYPE":"U","NORAD_CAT_ID":16719,"ELEMENT_SET_NO":999,"REV_AT_EPOCH":18744,"BSTAR":0.00044827,"MEAN_MOTION_DOT":0.00040087,"MEAN_MOTION_DDOT":0},{"OBJECT_NAME":"SL-14 R/B","OBJECT_ID":"1986-046B","EPOCH":"2026-04-24T19:26:33.842688","MEAN_MOTION":14.85633018,"ECCENTRICITY":0.0024664,"INCLINATION":82.4844,"RA_OF_ASC_NODE":36.6044,"ARG_OF_PERICENTER":76.4513,"MEAN_ANOMALY":283.9448,"EPHEMERIS_TYPE":0,"CLASSIFICATION_TYPE":"U","NORAD_CAT_ID":16792,"ELEMENT_SET_NO":999,"REV_AT_EPOCH":13325,"BSTAR":3.7093e-5,"MEAN_MOTION_DOT":3.48e-6,"MEAN_MOTION_DDOT":0},{"OBJECT_NAME":"SL-14 R/B","OBJECT_ID":"1986-055B","EPOCH":"2026-04-24T20:55:08.609088","MEAN_MOTION":14.85681662,"ECCENTRICITY":0.0018952,"INCLINATION":82.5185,"RA_OF_ASC_NODE":83.2505,"ARG_OF_PERICENTER":174.564,"MEAN_ANOMALY":247.8263,"EPHEMERIS_TYPE":0,"CLASSIFICATION_TYPE":"U","NORAD_CAT_ID":16882,"ELEMENT_SET_NO":999,"REV_AT_EPOCH":12622,"BSTAR":4.2692e-5,"MEAN_MOTION_DOT":3.96e-6,"MEAN_MOTION_DDOT":0},{"OBJECT_NAME":"AJISAI (EGS)","OBJECT_ID":"1986-061A","EPOCH":"2026-04-24T19:36:10.669824","MEAN_MOTION":12.44515943,"ECCENTRICITY":0.0011425,"INCLINATION":50.0101,"RA_OF_ASC_NODE":311.5097,"ARG_OF_PERICENTER":45.3149,"MEAN_ANOMALY":46.9503,"EPHEMERIS_TYPE":0,"CLASSIFICATION_TYPE":"U","NORAD_CAT_ID":16908,"ELEMENT_SET_NO":999,"REV_AT_EPOCH":47374,"BSTAR":0.00011954,"MEAN_MOTION_DOT":-8.1e-7,"MEAN_MOTION_DDOT":0},{"OBJECT_NAME":"SL-14 R/B","OBJECT_ID":"1987-024B","EPOCH":"2026-04-24T19:50:31.483392","MEAN_MOTION":14.86174147,"ECCENTRICITY":0.0019778,"INCLINATION":82.5296,"RA_OF_ASC_NODE":49.3955,"ARG_OF_PERICENTER":106.4709,"MEAN_ANOMALY":253.8683,"EPHEMERIS_TYPE":0,"CLASSIFICATION_TYPE":"U","NORAD_CAT_ID":17567,"ELEMENT_SET_NO":999,"REV_AT_EPOCH":9498,"BSTAR":4.2073e-5,"MEAN_MOTION_DOT":3.95e-6,"MEAN_MOTION_DDOT":0},{"OBJECT_NAME":"COSMOS 1833","OBJECT_ID":"1987-027A","EPOCH":"2026-04-24T15:52:32.511360","MEAN_MOTION":14.13034249,"ECCENTRICITY":0.0022419,"INCLINATION":70.9164,"RA_OF_ASC_NODE":229.384,"ARG_OF_PERICENTER":143.4149,"MEAN_ANOMALY":216.8509,"EPHEMERIS_TYPE":0,"CLASSIFICATION_TYPE":"U","NORAD_CAT_ID":17589,"ELEMENT_SET_NO":999,"REV_AT_EPOCH":1681,"BSTAR":-9.2665e-5,"MEAN_MOTION_DOT":-2.21e-6,"MEAN_MOTION_DDOT":0},{"OBJECT_NAME":"SL-16 R/B","OBJECT_ID":"1987-027B","EPOCH":"2026-04-24T12:02:13.639200","MEAN_MOTION":14.17170358,"ECCENTRICITY":0.0003557,"INCLINATION":71.0028,"RA_OF_ASC_NODE":179.9579,"ARG_OF_PERICENTER":29.0602,"MEAN_ANOMALY":331.0719,"EPHEMERIS_TYPE":0,"CLASSIFICATION_TYPE":"U","NORAD_CAT_ID":17590,"ELEMENT_SET_NO":999,"REV_AT_EPOCH":2183,"BSTAR":0.0001383,"MEAN_MOTION_DOT":2.31e-6,"MEAN_MOTION_DDOT":0},{"OBJECT_NAME":"SL-14 R/B","OBJECT_ID":"1987-038B","EPOCH":"2026-04-24T20:17:17.312064","MEAN_MOTION":14.85409131,"ECCENTRICITY":0.0019566,"INCLINATION":82.5003,"RA_OF_ASC_NODE":253.3133,"ARG_OF_PERICENTER":16.5244,"MEAN_ANOMALY":343.6605,"EPHEMERIS_TYPE":0,"CLASSIFICATION_TYPE":"U","NORAD_CAT_ID":17912,"ELEMENT_SET_NO":999,"REV_AT_EPOCH":8608,"BSTAR":3.9306e-5,"MEAN_MOTION_DOT":3.64e-6,"MEAN_MOTION_DDOT":0},{"OBJECT_NAME":"COSMOS 1844","OBJECT_ID":"1987-041A","EPOCH":"2026-04-24T20:37:38.928576","MEAN_MOTION":14.14560969,"ECCENTRICITY":0.003279,"INCLINATION":70.8982,"RA_OF_ASC_NODE":296.7921,"ARG_OF_PERICENTER":310.2783,"MEAN_ANOMALY":49.5473,"EPHEMERIS_TYPE":0,"CLASSIFICATION_TYPE":"U","NORAD_CAT_ID":17973,"ELEMENT_SET_NO":999,"REV_AT_EPOCH":1011,"BSTAR":-0.00013566,"MEAN_MOTION_DOT":-3.1e-6,"MEAN_MOTION_DDOT":0},{"OBJECT_NAME":"SL-14 R/B","OBJECT_ID":"1987-055B","EPOCH":"2026-04-24T19:32:21.340032","MEAN_MOTION":14.85667976,"ECCENTRICITY":0.0019658,"INCLINATION":82.4968,"RA_OF_ASC_NODE":305.5531,"ARG_OF_PERICENTER":217.7926,"MEAN_ANOMALY":142.1911,"EPHEMERIS_TYPE":0,"CLASSIFICATION_TYPE":"U","NORAD_CAT_ID":18153,"ELEMENT_SET_NO":999,"REV_AT_EPOCH":7678,"BSTAR":3.7675e-5,"MEAN_MOTION_DOT":3.52e-6,"MEAN_MOTION_DDOT":0},{"OBJECT_NAME":"COSMOS 1867","OBJECT_ID":"1987-060A","EPOCH":"2026-04-24T14:52:16.945248","MEAN_MOTION":14.31509544,"ECCENTRICITY":0.0015385,"INCLINATION":65.0102,"RA_OF_ASC_NODE":178.0768,"ARG_OF_PERICENTER":280.9432,"MEAN_ANOMALY":78.9921,"EPHEMERIS_TYPE":0,"CLASSIFICATION_TYPE":"U","NORAD_CAT_ID":18187,"ELEMENT_SET_NO":999,"REV_AT_EPOCH":2651,"BSTAR":1.1966e-5,"MEAN_MOTION_DOT":-6.8e-7,"MEAN_MOTION_DDOT":0},{"OBJECT_NAME":"SL-14 R/B","OBJECT_ID":"1988-001B","EPOCH":"2026-04-24T13:02:14.461152","MEAN_MOTION":14.8556928,"ECCENTRICITY":0.0019652,"INCLINATION":82.5126,"RA_OF_ASC_NODE":152.2428,"ARG_OF_PERICENTER":87.2814,"MEAN_ANOMALY":273.0652,"EPHEMERIS_TYPE":0,"CLASSIFICATION_TYPE":"U","NORAD_CAT_ID":18749,"ELEMENT_SET_NO":999,"REV_AT_EPOCH":4883,"BSTAR":2.6858e-5,"MEAN_MOTION_DOT":2.58e-6,"MEAN_MOTION_DDOT":0},{"OBJECT_NAME":"COSMOS 1933","OBJECT_ID":"1988-020A","EPOCH":"2026-04-24T15:54:44.273952","MEAN_MOTION":15.18380633,"ECCENTRICITY":0.0005041,"INCLINATION":82.5152,"RA_OF_ASC_NODE":205.4192,"ARG_OF_PERICENTER":56.1941,"MEAN_ANOMALY":303.9772,"EPHEMERIS_TYPE":0,"CLASSIFICATION_TYPE":"U","NORAD_CAT_ID":18958,"ELEMENT_SET_NO":999,"REV_AT_EPOCH":5720,"BSTAR":0.00015914,"MEAN_MOTION_DOT":3.301e-5,"MEAN_MOTION_DDOT":0},{"OBJECT_NAME":"SL-3 R/B","OBJECT_ID":"1988-032B","EPOCH":"2026-04-24T21:00:45.886176","MEAN_MOTION":15.20376237,"ECCENTRICITY":0.0027573,"INCLINATION":97.5237,"RA_OF_ASC_NODE":97.9983,"ARG_OF_PERICENTER":74.2561,"MEAN_ANOMALY":286.1712,"EPHEMERIS_TYPE":0,"CLASSIFICATION_TYPE":"U","NORAD_CAT_ID":19046,"ELEMENT_SET_NO":999,"REV_AT_EPOCH":5912,"BSTAR":0.00019453,"MEAN_MOTION_DOT":4.207e-5,"MEAN_MOTION_DDOT":0},{"OBJECT_NAME":"SL-16 R/B","OBJECT_ID":"1988-039B","EPOCH":"2026-04-24T20:26:00.307680","MEAN_MOTION":14.19623263,"ECCENTRICITY":0.0024087,"INCLINATION":71.0153,"RA_OF_ASC_NODE":330.9406,"ARG_OF_PERICENTER":269.1605,"MEAN_ANOMALY":90.676,"EPHEMERIS_TYPE":0,"CLASSIFICATION_TYPE":"U","NORAD_CAT_ID":19120,"ELEMENT_SET_NO":999,"REV_AT_EPOCH":96493,"BSTAR":9.1242e-5,"MEAN_MOTION_DOT":1.45e-6,"MEAN_MOTION_DDOT":0},{"OBJECT_NAME":"COSMOS 1953","OBJECT_ID":"1988-050A","EPOCH":"2026-04-24T10:33:48.907296","MEAN_MOTION":15.29191955,"ECCENTRICITY":0.0009611,"INCLINATION":82.5051,"RA_OF_ASC_NODE":112.1977,"ARG_OF_PERICENTER":332.0369,"MEAN_ANOMALY":28.0353,"EPHEMERIS_TYPE":0,"CLASSIFICATION_TYPE":"U","NORAD_CAT_ID":19210,"ELEMENT_SET_NO":999,"REV_AT_EPOCH":4477,"BSTAR":0.00020668,"MEAN_MOTION_DOT":5.893e-5,"MEAN_MOTION_DDOT":0}]
